{"type": "FeatureCollection", "features": [ {"type": "Feature", "properties": {"norad_id": 33799, "name": "COSMOS 2251 DEB", "group": "cosmos-2251-debris", "lat": 32.83246442294912, "lon": 67.71529701450254, "alt_km": 627.2517152065902, "timestamp": "2025-12-25T07:00:34.440805+00:00", "meta": {"OBJECT_NAME": "COSMOS 2251 DEB", "OBJECT_ID": "1993-036AQ", "EPOCH": "2025-12-24T15:10:53.090688", "MEAN_MOTION": 14.79792951, "ECCENTRICITY": 0.00222716, "INCLINATION": 74.0314, "RA_OF_ASC_NODE": 58.3662, "ARG_OF_PERICENTER": 124.6641, "MEAN_ANOMALY": 358.1096, "EPHEMERIS_TYPE": 0, "CLASSIFICATION_TYPE": "U", "NORAD_CAT_ID": 33799, "ELEMENT_SET_NO": 999, "REV_AT_EPOCH": 88987, "BSTAR": 0.0013479321, "MEAN_MOTION_DOT": 0.00010172, "MEAN_MOTION_DDOT": 0}, "tle": {"line1": "1 33799U 93036AQ  25358.63255892  .00010172  00000+0  13479-2 0  9991", "line2": "2 33799  74.0314  58.3662 0022271 124.6641 358.1096 14.79792951889876"}}, "geometry": {"type": "Point", "coordinates": [67.71529701450254, 32.83246442294912]}}, {"type": "Feature", "properties": {"norad_id": 33805, "name": "COSMOS 2251 DEB", "group": "cosmos-2251-debris", "lat": -73.04775517543074, "lon": 177.40080904042657, "alt_km": 744.175268958923, "timestamp": "2025-12-25T07:00:34.440816+00:00", "meta": {"OBJECT_NAME": "COSMOS 2251 DEB", "OBJECT_ID": "1993-036AW", "EPOCH": "2025-12-24T21:34:16.053024", "MEAN_MOTION": 14.57881864, "ECCENTRICITY": 0.00599053, "INCLINATION": 74.0313, "RA_OF_ASC_NODE": 288.2, "ARG_OF_PERICENTER": 113.6215, "MEAN_ANOMALY": 247.1255, "EPHEMERIS_TYPE": 0, "CLASSIFICATION_TYPE": "U", "NORAD_CAT_ID": 33805, "ELEMENT_SET_NO": 999, "REV_AT_EPOCH": 89404, "BSTAR": 0.00024190978, "MEAN_MOTION_DOT": 1.106e-05, "MEAN_MOTION_DDOT": 0}, "tle": {"line1": "1 33805U 93036AW  25358.89879691  .00001106  00000+0  24191-3 0  9997", "line2": "2 33805  74.0313 288.2000 0059905 113.6215 247.1255 14.57881864894049"}}, "geometry": {"type": "Point", "coordinates": [177.40080904042657, -73.04775517543074]}}, {"type": "Feature", "properties": {"norad_id": 33811, "name": "COSMOS 2251 DEB", "group": "cosmos-2251-debris", "lat": 55.61868637578199, "lon": 71.53974197757559, "alt_km": 556.4266714641344, "timestamp": "2025-12-25T07:00:34.440827+00:00", "meta": {"OBJECT_NAME": "COSMOS 2251 DEB", "OBJECT_ID": "1993-036BC", "EPOCH": "2025-12-24T22:50:08.144160", "MEAN_MOTION": 15.05621534, "ECCENTRICITY": 0.00309703, "INCLINATION": 73.8381, "RA_OF_ASC_NODE": 277.3233, "ARG_OF_PERICENTER": 355.6657, "MEAN_ANOMALY": 79.4887, "EPHEMERIS_TYPE": 0, "CLASSIFICATION_TYPE": "U", "NORAD_CAT_ID": 33811, "ELEMENT_SET_NO": 999, "REV_AT_EPOCH": 90202, "BSTAR": 0.0011241989, "MEAN_MOTION_DOT": 0.00016393, "MEAN_MOTION_DDOT": 0}, "tle": {"line1": "1 33811U 93036BC  25358.95148315  .00016393  00000+0  11242-2 0  9999", "line2": "2 33811  73.8381 277.3233 0030970 355.6657  79.4887 15.05621534902029"}}, "geometry": {"type": "Point", "coordinates": [71.53974197757559, 55.61868637578199]}}, {"type": "Feature", "properties": {"norad_id": 33815, "name": "COSMOS 2251 DEB", "group": "cosmos-2251-debris", "lat": 63.40385326162395, "lon": -64.93810667868652, "alt_km": 496.67475870972066, "timestamp": "2025-12-25T07:00:34.440837+00:00", "meta": {"OBJECT_NAME": "COSMOS 2251 DEB", "OBJECT_ID": "1993-036BG", "EPOCH": "2025-12-24T20:02:16.889280", "MEAN_MOTION": 15.21390355, "ECCENTRICITY": 0.00036759, "INCLINATION": 73.9533, "RA_OF_ASC_NODE": 151.1177, "ARG_OF_PERICENTER": 328.7614, "MEAN_ANOMALY": 159.811, "EPHEMERIS_TYPE": 0, "CLASSIFICATION_TYPE": "U", "NORAD_CAT_ID": 33815, "ELEMENT_SET_NO": 999, "REV_AT_EPOCH": 88554, "BSTAR": 0.0078842257, "MEAN_MOTION_DOT": 0.0018137, "MEAN_MOTION_DDOT": 0}, "tle": {"line1": "1 33815U 93036BG  25358.83491770  .00181370  00000+0  78842-2 0  9993", "line2": "2 33815  73.9533 151.1177 0003675 328.7614 159.8110 15.21390355885546"}}, "geometry": {"type": "Point", "coordinates": [-64.93810667868652, 63.40385326162395]}}, {"type": "Feature", "properties": {"norad_id": 33816, "name": "COSMOS 2251 DEB", "group": "cosmos-2251-debris", "lat": -46.91698314021077, "lon": -77.88459770833553, "alt_km": 1097.9480061097292, "timestamp": "2025-12-25T07:00:34.440848+00:00", "meta": {"OBJECT_NAME": "COSMOS 2251 DEB", "OBJECT_ID": "1993-036BH", "EPOCH": "2025-12-24T16:01:39.856224", "MEAN_MOTION": 13.8179612, "ECCENTRICITY": 0.02641477, "INCLINATION": 73.8953, "RA_OF_ASC_NODE": 85.1795, "ARG_OF_PERICENTER": 95.7469, "MEAN_ANOMALY": 267.3833, "EPHEMERIS_TYPE": 0, "CLASSIFICATION_TYPE": "U", "NORAD_CAT_ID": 33816, "ELEMENT_SET_NO": 999, "REV_AT_EPOCH": 84838, "BSTAR": 0.00034725828, "MEAN_MOTION_DOT": 4.63e-06, "MEAN_MOTION_DDOT": 0}, "tle": {"line1": "1 33816U 93036BH  25358.66782241  .00000463  00000+0  34726-3 0  9998", "line2": "2 33816  73.8953  85.1795 0264147  95.7469 267.3833 13.81796120848388"}}, "geometry": {"type": "Point", "coordinates": [-77.88459770833553, -46.91698314021077]}}, {"type": "Feature", "properties": {"norad_id": 33818, "name": "COSMOS 2251 DEB", "group": "cosmos-2251-debris", "lat": 53.091654948102345, "lon": 162.61714291009292, "alt_km": 513.5015114331645, "timestamp": "2025-12-25T07:00:34.440859+00:00", "meta": {"OBJECT_NAME": "COSMOS 2251 DEB", "OBJECT_ID": "1993-036BK", "EPOCH": "2025-12-24T20:09:40.929120", "MEAN_MOTION": 15.13486245, "ECCENTRICITY": 0.00241424, "INCLINATION": 74.0795, "RA_OF_ASC_NODE": 141.215, "ARG_OF_PERICENTER": 124.0784, "MEAN_ANOMALY": 350.7317, "EPHEMERIS_TYPE": 0, "CLASSIFICATION_TYPE": "U", "NORAD_CAT_ID": 33818, "ELEMENT_SET_NO": 999, "REV_AT_EPOCH": 90045, "BSTAR": 0.0027987586, "MEAN_MOTION_DOT": 0.00050768, "MEAN_MOTION_DDOT": 0}, "tle": {"line1": "1 33818U 93036BK  25358.84005705  .00050768  00000+0  27988-2 0  9997", "line2": "2 33818  74.0795 141.2150 0024142 124.0784 350.7317 15.13486245900453"}}, "geometry": {"type": "Point", "coordinates": [162.61714291009292, 53.091654948102345]}}, {"type": "Feature", "properties": {"norad_id": 33819, "name": "COSMOS 2251 DEB", "group": "cosmos-2251-debris", "lat": 41.66196840939698, "lon": -7.474795167644613, "alt_km": 781.5980680061948, "timestamp": "2025-12-25T07:00:34.440869+00:00", "meta": {"OBJECT_NAME": "COSMOS 2251 DEB", "OBJECT_ID": "1993-036BL", "EPOCH": "2025-12-24T22:19:13.156032", "MEAN_MOTION": 14.32260872, "ECCENTRICITY": 0.00895218, "INCLINATION": 74.1772, "RA_OF_ASC_NODE": 187.7952, "ARG_OF_PERICENTER": 45.4488, "MEAN_ANOMALY": 23.7082, "EPHEMERIS_TYPE": 0, "CLASSIFICATION_TYPE": "U", "NORAD_CAT_ID": 33819, "ELEMENT_SET_NO": 999, "REV_AT_EPOCH": 87670, "BSTAR": 0.00051656541, "MEAN_MOTION_DOT": 1.432e-05, "MEAN_MOTION_DDOT": 0}, "tle": {"line1": "1 33819U 93036BL  25358.93001338  .00001432  00000+0  51657-3 0  9991", "line2": "2 33819  74.1772 187.7952 0089521  45.4488  23.7082 14.32260872876706"}}, "geometry": {"type": "Point", "coordinates": [-7.474795167644613, 41.66196840939698]}}, {"type": "Feature", "properties": {"norad_id": 33821, "name": "COSMOS 2251 DEB", "group": "cosmos-2251-debris", "lat": 65.50626555036732, "lon": 155.23099342599707, "alt_km": 471.4101398480707, "timestamp": "2025-12-25T07:00:34.440879+00:00", "meta": {"OBJECT_NAME": "COSMOS 2251 DEB", "OBJECT_ID": "1993-036BN", "EPOCH": "2025-12-24T18:06:39.486816", "MEAN_MOTION": 15.26050093, "ECCENTRICITY": 0.00494362, "INCLINATION": 74.0304, "RA_OF_ASC_NODE": 117.4234, "ARG_OF_PERICENTER": 146.7467, "MEAN_ANOMALY": 213.6857, "EPHEMERIS_TYPE": 0, "CLASSIFICATION_TYPE": "U", "NORAD_CAT_ID": 33821, "ELEMENT_SET_NO": 999, "REV_AT_EPOCH": 75184, "BSTAR": 0.0013299502, "MEAN_MOTION_DOT": 0.00035617, "MEAN_MOTION_DDOT": 0}, "tle": {"line1": "1 33821U 93036BN  25358.75462369  .00035617  00000+0  13300-2 0  9993", "line2": "2 33821  74.0304 117.4234 0049436 146.7467 213.6857 15.26050093751848"}}, "geometry": {"type": "Point", "coordinates": [155.23099342599707, 65.50626555036732]}}, {"type": "Feature", "properties": {"norad_id": 33822, "name": "COSMOS 2251 DEB", "group": "cosmos-2251-debris", "lat": 3.0088190705594764, "lon": -9.338746037238014, "alt_km": 763.3166972236568, "timestamp": "2025-12-25T07:00:34.440890+00:00", "meta": {"OBJECT_NAME": "COSMOS 2251 DEB", "OBJECT_ID": "1993-036BP", "EPOCH": "2025-12-24T22:25:41.075616", "MEAN_MOTION": 14.13133115, "ECCENTRICITY": 0.01526398, "INCLINATION": 74.0682, "RA_OF_ASC_NODE": 172.1526, "ARG_OF_PERICENTER": 215.5067, "MEAN_ANOMALY": 304.0164, "EPHEMERIS_TYPE": 0, "CLASSIFICATION_TYPE": "U", "NORAD_CAT_ID": 33822, "ELEMENT_SET_NO": 999, "REV_AT_EPOCH": 86226, "BSTAR": 0.0016321308, "MEAN_MOTION_DOT": 3.385e-05, "MEAN_MOTION_DDOT": 0}, "tle": {"line1": "1 33822U 93036BP  25358.93450319  .00003385  00000+0  16321-2 0  9999", "line2": "2 33822  74.0682 172.1526 0152639 215.5067 304.0164 14.13133115862268"}}, "geometry": {"type": "Point", "coordinates": [-9.338746037238014, 3.0088190705594764]}}, {"type": "Feature", "properties": {"norad_id": 33823, "name": "COSMOS 2251 DEB", "group": "cosmos-2251-debris", "lat": 71.86888914860332, "lon": -170.142856880145, "alt_km": 1039.3910500554266, "timestamp": "2025-12-25T07:00:34.440900+00:00", "meta": {"OBJECT_NAME": "COSMOS 2251 DEB", "OBJECT_ID": "1993-036BQ", "EPOCH": "2025-12-24T19:20:41.845632", "MEAN_MOTION": 13.98980632, "ECCENTRICITY": 0.02094741, "INCLINATION": 73.8099, "RA_OF_ASC_NODE": 128.1829, "ARG_OF_PERICENTER": 251.4181, "MEAN_ANOMALY": 263.9686, "EPHEMERIS_TYPE": 0, "CLASSIFICATION_TYPE": "U", "NORAD_CAT_ID": 33823, "ELEMENT_SET_NO": 999, "REV_AT_EPOCH": 85778, "BSTAR": 0.00082712522, "MEAN_MOTION_DOT": 1.415e-05, "MEAN_MOTION_DDOT": 0}, "tle": {"line1": "1 33823U 93036BQ  25358.80603988  .00001415  00000+0  82713-3 0  9999", "line2": "2 33823  73.8099 128.1829 0209474 251.4181 263.9686 13.98980632857780"}}, "geometry": {"type": "Point", "coordinates": [-170.142856880145, 71.86888914860332]}}]}